NORAD_CAT_ID,OBJECT_NAME,OBJECT_TYPE,EPOCH,MEAN_MOTION,ECCENTRICITY,INCLINATION,RA_OF_ASC_NODE,ARG_OF_PERICENTER,MEAN_ANOMALY,BSTAR,MEAN_MOTION_DOT,MEAN_MOTION_DDOT,TLE_LINE0,TLE_LINE1,TLE_LINE2,SEMIMAJOR_AXIS,PERIOD,APOGEE,PERIGEE,DECAYED
52361.0,STARLINK-3728,PAYLOAD,2022-08-29 14:00:01,15.08860931,0.0002859,53.2169,221.644,45.9018,48.0112,-0.0019219,-0.00030765,0.0,0 STARLINK-3728,1 52361U 22045AG  22241.58334491 -.00030765  00000-0 -19219-2 0  9995,2 52361  53.2169 221.6440 0002859  45.9018  48.0112 15.08860931  1306,6917.816,95.436,541.659,537.7040000000002,0.0
52361.0,STARLINK-3728,PAYLOAD,2022-08-29 22:00:00,15.08853488,0.0002726,53.2172,220.1465,50.0729,55.4492,6.4071e-06,-1.87e-06,0.0,0 STARLINK-3728,1 52361U 22045AG  22241.91667824 -.00000187  00000-0  64071-5 0  9994,2 52361  53.2172 220.1465 0002726  50.0729  55.4492 15.08853488 21371,6917.839,95.437,541.59,537.818,0.0
52361.0,STARLINK-3728,PAYLOAD,2022-08-30 14:00:01,15.08845795,0.0002784,53.2171,217.1549,46.6144,82.0909,-0.0018449999999999,-0.00029539,0.0,0 STARLINK-3728,1 52361U 22045AG  22242.58334491 -.00029539  00000-0 -18450-2 0  9999,2 52361  53.2171 217.1549 0002784  46.6144  82.0909 15.08845795 21477,6917.863,95.437,541.654,537.802,0.0
52361.0,STARLINK-3728,PAYLOAD,2022-08-30 22:00:00,15.08830519,0.0002688,53.2175,215.6576,51.2252,89.0683,0.0014499,0.00022857,0.0,0 STARLINK-3728,1 52361U 22045AG  22242.91667824  .00022857  00000-0  14499-2 0  9998,2 52361  53.2175 215.6576 0002688  51.2252  89.0683 15.08830519  1303,6917.909000000002,95.438,541.634,537.915,0.0
52361.0,STARLINK-3728,PAYLOAD,2022-08-31 14:00:01,15.08855889,0.0002788999999999,53.217,212.666,49.274,114.1966,-0.0019607,-0.00031373,0.0,0 STARLINK-3728,1 52361U 22045AG  22243.58334491 -.00031373  00000-0 -19607-2 0  9994,2 52361  53.2170 212.6660 0002789  49.2740 114.1966 15.08855889  1301,6917.831999999999,95.437,541.626,537.7669999999998,0.0
52361.0,STARLINK-3728,PAYLOAD,2022-08-31 22:00:00,15.08843892,0.0002726,53.2172,211.169,53.7785,121.2902,0.00089946,0.00014058,0.0,0 STARLINK-3728,1 52361U 22045AG  22243.91667824  .00014058  00000-0  89946-3 0  9993,2 52361  53.2172 211.1690 0002726  53.7785 121.2902 15.08843892  1300,6917.868,95.437,541.619,537.8480000000002,0.0
52361.0,STARLINK-3728,PAYLOAD,2022-09-01 14:00:01,15.08839491,0.0002723,53.2165,208.177,50.2621,148.0338,-0.0018903,-0.00030248,0.0,0 STARLINK-3728,1 52361U 22045AG  22244.58335648 -.00030248  00000-0 -18903-2 0  9998,2 52361  53.2165 208.1770 0002723  50.2621 148.0338 15.08839491  1305,6917.882,95.438,541.631,537.863,0.0
52361.0,STARLINK-3728,PAYLOAD,2022-09-01 22:00:00,15.08831656,0.0002698,53.2167,206.6804,54.4189,155.3913,0.00056002,8.634e-05,0.0,0 STARLINK-3728,1 52361U 22045AG  22244.91667824  .00008634  00000-0  56002-3 0  9994,2 52361  53.2167 206.6804 0002698  54.4189 155.3913 15.08831656  1309,6917.906,95.438,541.637,537.904,0.0
52361.0,STARLINK-3728,PAYLOAD,2022-09-02 06:00:00,15.08820598,0.0002884999999999,53.2165,205.1858,50.5139,170.8889,0.0013193,0.00020761,0.0,0 STARLINK-3728,1 52361U 22045AG  22245.25001157  .00020761  00000-0  13193-2 0  9991,2 52361  53.2165 205.1858 0002885  50.5139 170.8889 15.08820598 21871,6917.94,95.439,541.8009999999998,537.809,0.0
52361.0,STARLINK-3728,PAYLOAD,2022-09-02 14:00:01,15.08850902,0.0002787,53.2162,203.6882,52.2138,180.7686,-0.0016497,-0.00026457,0.0,0 STARLINK-3728,1 52361U 22045AG  22245.58334491 -.00026457  00000-0 -16497-2 0  9997,2 52361  53.2162 203.6882 0002787  52.2138 180.7686 15.08850902  1300,6917.847,95.437,541.64,537.784,0.0
52361.0,STARLINK-3728,PAYLOAD,2022-09-02 22:00:01,15.08847087,0.0002793,53.2162,202.1914,56.0791,188.5566,0.00036479,5.523e-05,0.0,0 STARLINK-3728,1 52361U 22045AG  22245.91668981  .00005523  00000-0  36479-3 0  9990,2 52361  53.2162 202.1914 0002793  56.0791 188.5566 15.08847087  1307,6917.859,95.437,541.656,537.7919999999998,0.0
52361.0,STARLINK-3728,PAYLOAD,2022-09-03 08:00:01,15.08828593,0.0002965,53.216,200.3227,51.549,297.5341,0.0030684,0.00048871,0.0,0 STARLINK-3728,1 52361U 22045AG  22246.33334491  .00048871  00000-0  30684-2 0  9997,2 52361  53.2160 200.3227 0002965  51.5490 297.5341 15.08828593 22035,6917.915,95.438,541.831,537.729,0.0
52361.0,STARLINK-3728,PAYLOAD,2022-09-03 14:00:01,15.08865435,0.000286,53.2161,199.199,53.7776,214.0031,-0.0013072,-0.00021048,0.0,0 STARLINK-3728,1 52361U 22045AG  22246.58334491 -.00021048  00000-0 -13072-2 0  9995,2 52361  53.2161 199.1990 0002860  53.7776 214.0031 15.08865435  1306,6917.803000000001,95.436,541.646,537.689,0.0
52361.0,STARLINK-3728,PAYLOAD,2022-09-03 22:00:00,15.08844042,0.0002799,53.2168,197.7033,55.2252,224.1691,-0.00089353,-0.00014483,0.0,0 STARLINK-3728,1 52361U 22045AG  22246.91667824 -.00014483  00000-0 -89353-3 0  9992,2 52361  53.2168 197.7033 0002799  55.2252 224.1691 15.08844042 22120,6917.868,95.437,541.669,537.797,0.0
52361.0,STARLINK-3728,PAYLOAD,2022-09-04 14:00:01,15.08866296,0.0002777,53.2163,194.7098,53.3445,249.3149,-0.0029331,-0.00046703,0.0,0 STARLINK-3728,1 52361U 22045AG  22247.58335648 -.00046703  00000-0 -29331-2 0  9991,2 52361  53.2163 194.7098 0002777  53.3445 249.3149 15.08866296 22225,6917.8,95.436,541.586,537.744,0.0
52361.0,STARLINK-3728,PAYLOAD,2022-09-04 20:00:01,15.088314000000002,0.000273,53.2164,193.5869,56.5169,164.7883,0.0024791,0.0003938,0.0,0 STARLINK-3728,1 52361U 22045AG  22247.83334491  .00039380  00000-0  24791-2 0  9990,2 52361  53.2164 193.5869 0002730  56.5169 164.7883 15.08831400  1306,6917.906999999997,95.438,541.66,537.883,0.0
52361.0,STARLINK-3728,PAYLOAD,2022-09-05 06:00:00,15.08845844,0.000289,53.2165,191.7185,52.048,273.7665,0.0017458999999999,0.00027613,0.0,0 STARLINK-3728,1 52361U 22045AG  22248.25001157  .00027613  00000-0  17459-2 0  9996,2 52361  53.2165 191.7185 0002890  52.0480 273.7665 15.08845844 22323,6917.863,95.437,541.727,537.7280000000002,0.0
52361.0,STARLINK-3728,PAYLOAD,2022-09-05 14:00:01,15.08857284,0.000267,53.2167,190.2205,53.4905,283.9407,-0.0021319,-0.00034076,0.0,0 STARLINK-3728,1 52361U 22045AG  22248.58334491 -.00034076  00000-0 -21319-2 0  9995,2 52361  53.2167 190.2205 0002670  53.4905 283.9407 15.08857284  1308,6917.828,95.436,541.54,537.845,0.0
52361.0,STARLINK-3728,PAYLOAD,2022-09-05 22:00:00,15.08853484,0.0002563,53.217,188.7241,54.453,294.5767,-0.0038476,-0.00061031,0.0,0 STARLINK-3728,1 52361U 22045AG  22248.91667824 -.00061031  00000-0 -38476-2 0  9994,2 52361  53.2170 188.7241 0002563  54.4530 294.5767 15.08853484 22421,6917.839,95.437,541.477,537.931,0.0
52361.0,STARLINK-3728,PAYLOAD,2022-09-06 12:00:00,15.08832236,0.0002566,53.2169,186.1059,51.1695,228.11,-0.0015757,-0.00025274,0.0,0 STARLINK-3728,1 52361U 22045AG  22249.50001157 -.00025274  00000-0 -15757-2 0  9997,2 52361  53.2169 186.1059 0002566  51.1695 228.1100 15.08832236 22513,6917.904,95.438,541.544,537.994,0.0
52361.0,STARLINK-3728,PAYLOAD,2022-09-06 14:00:01,15.08815448,0.0002518,53.2171,185.7314,53.01600000000001,319.1625,0.0006427,9.949e-05,0.0,0 STARLINK-3728,1 52361U 22045AG  22249.58334491  .00009949  00000-0  64270-3 0  9999,2 52361  53.2171 185.7314 0002518  53.0160 319.1625 15.08815448  1303,6917.955,95.439,541.562,538.078,0.0
52361.0,STARLINK-3728,PAYLOAD,2022-09-06 22:00:00,15.0884359,0.0002528999999999,53.2174,184.2354,54.9778,328.7644,-0.00059369,-9.726e-05,0.0,0 STARLINK-3728,1 52361U 22045AG  22249.91667824 -.00009726  00000-0 -59369-3 0  9993,2 52361  53.2174 184.2354 0002529  54.9778 328.7644 15.08843590  1307,6917.869000000002,95.437,541.484,537.985,0.0
52361.0,STARLINK-3728,PAYLOAD,2022-09-07 06:00:00,15.08821024,0.000265,53.2172,182.7405,50.8347,344.5059,0.0023881,0.00037905,0.0,0 STARLINK-3728,1 52361U 22045AG  22250.25001157  .00037905  00000-0  23881-2 0  9990,2 52361  53.2172 182.7405 0002650  50.8347 344.5059 15.08821024 22630,6917.938,95.439,541.637,537.97,0.0
52361.0,STARLINK-3728,PAYLOAD,2022-09-07 14:00:01,15.08827173,0.0002439,53.2173,181.2425,54.307,352.6307,-0.00037836,-6.303e-05,0.0,0 STARLINK-3728,1 52361U 22045AG  22250.58334491 -.00006303  00000-0 -37836-3 0  9992,2 52361  53.2173 181.2425 0002439  54.3070 352.6307 15.08827173  1302,6917.92,95.438,541.472,538.097,0.0
52361.0,STARLINK-3728,PAYLOAD,2022-09-07 22:00:00,15.08845454,0.0002446,53.2175,179.7467,55.5863,2.9225,-0.0010594,-0.00017112,0.0,0 STARLINK-3728,1 52361U 22045AG  22250.91667824 -.00017112  00000-0 -10594-2 0  9999,2 52361  53.2175 179.7467 0002446  55.5863   2.9225 15.08845454  1309,6917.864000000001,95.437,541.4209999999998,538.0369999999998,0.0
52361.0,STARLINK-3728,PAYLOAD,2022-09-08 14:00:01,15.08840622,0.0002387999999999,53.2173,176.7537,56.0682,25.6357,0.00059684,9.224e-05,0.0,0 STARLINK-3728,1 52361U 22045AG  22251.58334491  .00009224  00000-0  59684-3 0  9991,2 52361  53.2173 176.7537 0002388  56.0682  25.6357 15.08840622  1302,6917.878000000002,95.438,541.395,538.091,0.0
52361.0,STARLINK-3728,PAYLOAD,2022-09-08 22:00:00,15.08862257,0.0002393,53.2174,175.25799999999995,56.7045,36.6037,-0.0026678,-0.00042524,0.0,0 STARLINK-3728,1 52361U 22045AG  22251.91667824 -.00042524  00000-0 -26678-2 0  9995,2 52361  53.2174 175.2580 0002393  56.7045  36.6037 15.08862257 22882,6917.812,95.436,541.3330000000002,538.0219999999998,0.0
52361.0,STARLINK-3728,PAYLOAD,2022-09-09 14:00:01,15.08843961,0.0002307,53.2171,172.2649,56.2724,60.2387,0.00017144,2.442e-05,0.0,0 STARLINK-3728,1 52361U 22045AG  22252.58334491  .00002442  00000-0  17144-3 0  9992,2 52361  53.2171 172.2649 0002307  56.2724  60.2387 15.08843961  1302,6917.868,95.437,541.3290000000002,538.137,0.0
52361.0,STARLINK-3728,PAYLOAD,2022-09-09 22:00:00,15.08849174,0.0002331,53.2172,170.7692,56.6779,71.4353,-0.0013584,-0.00021848,0.0,0 STARLINK-3728,1 52361U 22045AG  22252.91667824 -.00021848  00000-0 -13584-2 0  9994,2 52361  53.2172 170.7692 0002331  56.6779  71.4353 15.08849174  1304,6917.852,95.437,541.33,538.105,0.0
